[
    {
        "Altitude(m)": 605459.063168129,
        "Argument of Periapsis(deg)": 0.0,
        "Eccentricity": 0.0,
        "Inclination(deg)": 60.0,
        "Latitude(deg)": 27.98832559909378,
        "Longitude(deg)": 67.79855552335025,
        "Mean Anomaly(deg)": 32.727299999999985,
        "RAAN(deg)": 150.0,
        "Satellite Name": "Test1 662",
        "Satellite Number": 662,
        "Semi-Major Axis(m)": 6980739.136638005,
        "Time(s)": 0
    },
    {
        "Altitude(m)": 605535.8547054853,
        "Argument of Periapsis(deg)": 0.00010418945913296404,
        "Eccentricity": 0.0,
        "Inclination(deg)": 60.0,
        "Latitude(deg)": 28.50145544193705,
        "Longitude(deg)": 68.15550034015025,
        "Mean Anomaly(deg)": 33.34740614546184,
        "RAAN(deg)": 149.99957995086027,
        "Satellite Name": "Test1 662",
        "Satellite Number": 662,
        "Semi-Major Axis(m)": 6980739.136638005,
        "Time(s)": 10
    }
]